[{"OBJECT_NAME":"STARLINK-1553","OBJECT_ID":"2020-062Z","EPOCH":"2026-03-09T21:21:38.690496","MEAN_MOTION":15.36665572,"ECCENTRICITY":0.00049977,"INCLINATION":53.0381,"RA_OF_ASC_NODE":305.9588,"ARG_OF_PERICENTER":144.0342,"MEAN_ANOMALY":216.0997,"EPHEMERIS_TYPE":0,"CLASSIFICATION_TYPE":"U","NORAD_CAT_ID":46348,"ELEMENT_SET_NO":999,"REV_AT_EPOCH":30532,"BSTAR":0.00060638819,"MEAN_MOTION_DOT":0.00021714,"MEAN_MOTION_DDOT":0},{"OBJECT_NAME":"NEONSAT-1","OBJECT_ID":"2024-077A","EPOCH":"2026-03-09T22:26:06.154944","MEAN_MOTION":15.35891462,"ECCENTRICITY":0.00098814,"INCLINATION":97.3521,"RA_OF_ASC_NODE":152.9367,"ARG_OF_PERICENTER":35.5885,"MEAN_ANOMALY":324.6016,"EPHEMERIS_TYPE":0,"CLASSIFICATION_TYPE":"U","NORAD_CAT_ID":59587,"ELEMENT_SET_NO":999,"REV_AT_EPOCH":10448,"BSTAR":0.00040888908,"MEAN_MOTION_DOT":0.00014234,"MEAN_MOTION_DDOT":0}]
